{
  "type": "FeatureCollection",
  "features": [
    {
      "type": "Feature",
      "properties": {
        "norad_id": 35435,
        "name": "COSMOS 2251 DEB",
        "group": "cosmos-2251-debris",
        "lat": 57.586704978253906,
        "lon": 102.66181637952084,
        "alt_km": 628.6083660132026,
        "timestamp": "2025-12-27T02:10:16.585066+00:00",
        "meta_object_name": "COSMOS 2251 DEB",
        "meta_object_id": "1993-036AKD",
        "meta_epoch": "2025-12-26T11:20:53.618784",
        "meta_mean_motion": 14.78874104,
        "meta_eccentricity": 0.0006374,
        "meta_inclination": 74.0106,
        "meta_ra_of_asc_node": 77.0315,
        "meta_arg_of_pericenter": 174.8341,
        "meta_mean_anomaly": 199.8538,
        "meta_ephemeris_type": 0,
        "meta_classification_type": "U",
        "meta_norad_cat_id": 35435,
        "meta_element_set_no": 999,
        "meta_rev_at_epoch": 87742,
        "meta_bstar": 0.0019375,
        "meta_mean_motion_dot": 0.00014275,
        "meta_mean_motion_ddot": 0,
        "tle_line1": "1 35435U 93036AKD 25360.47284281  .00014275  00000+0  19375-2 0  9998",
        "tle_line2": "2 35435  74.0106  77.0315 0006374 174.8341 199.8538 14.78874104877426"
      },
      "geometry": {
        "type": "Point",
        "coordinates": [
          102.66181637952084,
          57.586704978253906
        ]
      }
    },
    {
      "type": "Feature",
      "properties": {
        "norad_id": 35439,
        "name": "COSMOS 2251 DEB",
        "group": "cosmos-2251-debris",
        "lat": -54.918884511563995,
        "lon": -45.76745279313527,
        "alt_km": 784.057892018558,
        "timestamp": "2025-12-27T02:10:16.585077+00:00",
        "meta_object_name": "COSMOS 2251 DEB",
        "meta_object_id": "1993-036AKH",
        "meta_epoch": "2025-12-23T01:03:41.280192",
        "meta_mean_motion": 13.9285581,
        "meta_eccentricity": 0.02428241,
        "meta_inclination": 74.0195,
        "meta_ra_of_asc_node": 117.083,
        "meta_arg_of_pericenter": 284.1415,
        "meta_mean_anomaly": 194.5054,
        "meta_ephemeris_type": 0,
        "meta_classification_type": "U",
        "meta_norad_cat_id": 35439,
        "meta_element_set_no": 999,
        "meta_rev_at_epoch": 84104,
        "meta_bstar": 0.0017241175,
        "meta_mean_motion_dot": 2.822e-05,
        "meta_mean_motion_ddot": 0,
        "tle_line1": "1 35439U 93036AKH 25357.04422778  .00002822  00000+0  17241-2 0  9991",
        "tle_line2": "2 35439  74.0195 117.0830 0242824 284.1415 194.5054 13.92855810841046"
      },
      "geometry": {
        "type": "Point",
        "coordinates": [
          -45.76745279313527,
          -54.918884511563995
        ]
      }
    },
    {
      "type": "Feature",
      "properties": {
        "norad_id": 35440,
        "name": "COSMOS 2251 DEB",
        "group": "cosmos-2251-debris",
        "lat": -73.64256533791219,
        "lon": 102.25284215539365,
        "alt_km": 636.1822949859634,
        "timestamp": "2025-12-27T02:10:16.585087+00:00",
        "meta_object_name": "COSMOS 2251 DEB",
        "meta_object_id": "1993-036AKJ",
        "meta_epoch": "2025-12-26T18:23:12.577056",
        "meta_mean_motion": 14.68880291,
        "meta_eccentricity": 0.0069914,
        "meta_inclination": 74.0164,
        "meta_ra_of_asc_node": 180.4489,
        "meta_arg_of_pericenter": 318.4907,
        "meta_mean_anomaly": 41.0964,
        "meta_ephemeris_type": 0,
        "meta_classification_type": "U",
        "meta_norad_cat_id": 35440,
        "meta_element_set_no": 999,
        "meta_rev_at_epoch": 68971,
        "meta_bstar": 0.00042501,
        "meta_mean_motion_dot": 2.545e-05,
        "meta_mean_motion_ddot": 0,
        "tle_line1": "1 35440U 93036AKJ 25360.76611779  .00002545  00000+0  42501-3 0  9997",
        "tle_line2": "2 35440  74.0164 180.4489 0069914 318.4907  41.0964 14.68880291689717"
      },
      "geometry": {
        "type": "Point",
        "coordinates": [
          102.25284215539365,
          -73.64256533791219
        ]
      }
    },
    {
      "type": "Feature",
      "properties": {
        "norad_id": 35441,
        "name": "COSMOS 2251 DEB",
        "group": "cosmos-2251-debris",
        "lat": -74.12027684063123,
        "lon": -177.87632396127353,
        "alt_km": 698.93760374044,
        "timestamp": "2025-12-27T02:10:16.585097+00:00",
        "meta_object_name": "COSMOS 2251 DEB",
        "meta_object_id": "1993-036AKK",
        "meta_epoch": "2025-12-24T12:12:34.900128",
        "meta_mean_motion": 14.62759756,
        "meta_eccentricity": 0.0036013,
        "meta_inclination": 74.1345,
        "meta_ra_of_asc_node": 275.6818,
        "meta_arg_of_pericenter": 167.8993,
        "meta_mean_anomaly": 192.3049,
        "meta_ephemeris_type": 0,
        "meta_classification_type": "U",
        "meta_norad_cat_id": 35441,
        "meta_element_set_no": 999,
        "meta_rev_at_epoch": 87602,
        "meta_bstar": 0.0014950847,
        "meta_mean_motion_dot": 7.673e-05,
        "meta_mean_motion_ddot": 0,
        "tle_line1": "1 35441U 93036AKK 25358.50873727  .00007673  00000+0  14951-2 0  9994",
        "tle_line2": "2 35441  74.1345 275.6818 0036013 167.8993 192.3049 14.62759756876029"
      },
      "geometry": {
        "type": "Point",
        "coordinates": [
          -177.87632396127353,
          -74.12027684063123
        ]
      }
    },
    {
      "type": "Feature",
      "properties": {
        "norad_id": 35442,
        "name": "COSMOS 2251 DEB",
        "group": "cosmos-2251-debris",
        "lat": -26.276923862914042,
        "lon": -101.22340789150167,
        "alt_km": 622.0471950473466,
        "timestamp": "2025-12-27T02:10:16.585107+00:00",
        "meta_object_name": "COSMOS 2251 DEB",
        "meta_object_id": "1993-036AKL",
        "meta_epoch": "2025-12-25T15:17:05.194752",
        "meta_mean_motion": 14.84871304,
        "meta_eccentricity": 0.000409,
        "meta_inclination": 74.0274,
        "meta_ra_of_asc_node": 73.5324,
        "meta_arg_of_pericenter": 35.8112,
        "meta_mean_anomaly": 324.334,
        "meta_ephemeris_type": 0,
        "meta_classification_type": "U",
        "meta_norad_cat_id": 35442,
        "meta_element_set_no": 999,
        "meta_rev_at_epoch": 87544,
        "meta_bstar": 0.0020511,
        "meta_mean_motion_dot": 0.00017456,
        "meta_mean_motion_ddot": 0,
        "tle_line1": "1 35442U 93036AKL 25359.63686568  .00017456  00000+0  20511-2 0  9994",
        "tle_line2": "2 35442  74.0274  73.5324 0004090  35.8112 324.3340 14.84871304875448"
      },
      "geometry": {
        "type": "Point",
        "coordinates": [
          -101.22340789150167,
          -26.276923862914042
        ]
      }
    },
    {
      "type": "Feature",
      "properties": {
        "norad_id": 35443,
        "name": "COSMOS 2251 DEB",
        "group": "cosmos-2251-debris",
        "lat": 7.128266514904366,
        "lon": 120.40139336352489,
        "alt_km": 576.1344411763775,
        "timestamp": "2025-12-27T02:10:16.585117+00:00",
        "meta_object_name": "COSMOS 2251 DEB",
        "meta_object_id": "1993-036AKM",
        "meta_epoch": "2025-12-26T12:35:18.229056",
        "meta_mean_motion": 14.9791989,
        "meta_eccentricity": 0.0073436,
        "meta_inclination": 73.9845,
        "meta_ra_of_asc_node": 303.6097,
        "meta_arg_of_pericenter": 81.8986,
        "meta_mean_anomaly": 279.0522,
        "meta_ephemeris_type": 0,
        "meta_classification_type": "U",
        "meta_norad_cat_id": 35443,
        "meta_element_set_no": 999,
        "meta_rev_at_epoch": 87084,
        "meta_bstar": 0.0041019,
        "meta_mean_motion_dot": 0.00051428,
        "meta_mean_motion_ddot": 0,
        "tle_line1": "1 35443U 93036AKM 25360.52451654  .00051428  00000+0  41019-2 0  9994",
        "tle_line2": "2 35443  73.9845 303.6097 0073436  81.8986 279.0522 14.97919890870849"
      },
      "geometry": {
        "type": "Point",
        "coordinates": [
          120.40139336352489,
          7.128266514904366
        ]
      }
    },
    {
      "type": "Feature",
      "properties": {
        "norad_id": 35445,
        "name": "COSMOS 2251 DEB",
        "group": "cosmos-2251-debris",
        "lat": 43.27209375503839,
        "lon": -71.72326514767678,
        "alt_km": 623.957318338089,
        "timestamp": "2025-12-27T02:10:16.585127+00:00",
        "meta_object_name": "COSMOS 2251 DEB",
        "meta_object_id": "1993-036AKP",
        "meta_epoch": "2025-12-24T19:40:46.420608",
        "meta_mean_motion": 14.59408318,
        "meta_eccentricity": 0.01439573,
        "meta_inclination": 74.0386,
        "meta_ra_of_asc_node": 276.9734,
        "meta_arg_of_pericenter": 1.0045,
        "meta_mean_anomaly": 359.138,
        "meta_ephemeris_type": 0,
        "meta_classification_type": "U",
        "meta_norad_cat_id": 35445,
        "meta_element_set_no": 999,
        "meta_rev_at_epoch": 87505,
        "meta_bstar": 0.0021997687,
        "meta_mean_motion_dot": 0.00012035,
        "meta_mean_motion_ddot": 0,
        "tle_line1": "1 35445U 93036AKP 25358.81998172  .00012035  00000+0  21998-2 0  9991",
        "tle_line2": "2 35445  74.0386 276.9734 0143957   1.0045 359.1380 14.59408318875055"
      },
      "geometry": {
        "type": "Point",
        "coordinates": [
          -71.72326514767678,
          43.27209375503839
        ]
      }
    }
  ]
}